{"type": "FeatureCollection", "features": [{"type": "Feature", "properties": {"name": "Qozog'iston", "kind": "country", "rank": 0}, "geometry": {"type": "Point", "coordinates": [64.0, 45.3]}}, {"type": "Feature", "properties": {"name": "Turkmaniston", "kind": "country", "rank": 0}, "geometry": {"type": "Point", "coordinates": [59.2, 39.2]}}, {"type": "Feature", "properties": {"name": "Tojikiston", "kind": "country", "rank": 0}, "geometry": {"type": "Point", "coordinates": [70.6, 38.6]}}, {"type": "Feature", "properties": {"name": "Qirg'iziston", "kind": "country", "rank": 0}, "geometry": {"type": "Point", "coordinates": [74.3, 41.7]}}, {"type": "Feature", "properties": {"name": "Afg'oniston", "kind": "country", "rank": 0}, "geometry": {"type": "Point", "coordinates": [66.4, 36.5]}}, {"type": "Feature", "properties": {"name": "O'ZBEKISTON", "kind": "uz", "rank": 0}, "geometry": {"type": "Point", "coordinates": [63.6, 41.9]}}, {"type": "Feature", "properties": {"name": "Toshkent", "kind": "capital", "rank": 0}, "geometry": {"type": "Point", "coordinates": [69.279, 41.311]}}, {"type": "Feature", "properties": {"name": "Nukus", "kind": "center", "rank": 1}, "geometry": {"type": "Point", "coordinates": [59.603, 42.46]}}, {"type": "Feature", "properties": {"name": "Urganch", "kind": "center", "rank": 1}, "geometry": {"type": "Point", "coordinates": [60.631, 41.55]}}, {"type": "Feature", "properties": {"name": "Buxoro", "kind": "center", "rank": 1}, "geometry": {"type": "Point", "coordinates": [64.421, 39.768]}}, {"type": "Feature", "properties": {"name": "Navoiy", "kind": "center", "rank": 1}, "geometry": {"type": "Point", "coordinates": [65.374, 40.103]}}, {"type": "Feature", "properties": {"name": "Samarqand", "kind": "center", "rank": 1}, "geometry": {"type": "Point", "coordinates": [66.976, 39.654]}}, {"type": "Feature", "properties": {"name": "Qarshi", "kind": "center", "rank": 1}, "geometry": {"type": "Point", "coordinates": [65.79, 38.861]}}, {"type": "Feature", "properties": {"name": "Termiz", "kind": "center", "rank": 1}, "geometry": {"type": "Point", "coordinates": [67.278, 37.224]}}, {"type": "Feature", "properties": {"name": "Jizzax", "kind": "center", "rank": 1}, "geometry": {"type": "Point", "coordinates": [67.842, 40.116]}}, {"type": "Feature", "properties": {"name": "Guliston", "kind": "center", "rank": 1}, "geometry": {"type": "Point", "coordinates": [68.785, 40.49]}}, {"type": "Feature", "properties": {"name": "Nurafshon", "kind": "center", "rank": 1}, "geometry": {"type": "Point", "coordinates": [69.358, 41.04]}}, {"type": "Feature", "properties": {"name": "Namangan", "kind": "center", "rank": 1}, "geometry": {"type": "Point", "coordinates": [71.672, 40.998]}}, {"type": "Feature", "properties": {"name": "Andijon", "kind": "center", "rank": 1}, "geometry": {"type": "Point", "coordinates": [72.344, 40.783]}}, {"type": "Feature", "properties": {"name": "Farg'ona", "kind": "center", "rank": 1}, "geometry": {"type": "Point", "coordinates": [71.784, 40.389]}}, {"type": "Feature", "properties": {"name": "Qo'qon", "kind": "city", "rank": 2}, "geometry": {"type": "Point", "coordinates": [70.943, 40.528]}}, {"type": "Feature", "properties": {"name": "Chirchiq", "kind": "city", "rank": 2}, "geometry": {"type": "Point", "coordinates": [69.582, 41.469]}}, {"type": "Feature", "properties": {"name": "Olmaliq", "kind": "city", "rank": 2}, "geometry": {"type": "Point", "coordinates": [69.598, 40.845]}}, {"type": "Feature", "properties": {"name": "Angren", "kind": "city", "rank": 2}, "geometry": {"type": "Point", "coordinates": [70.144, 41.017]}}, {"type": "Feature", "properties": {"name": "Marg'ilon", "kind": "city", "rank": 2}, "geometry": {"type": "Point", "coordinates": [71.725, 40.471]}}, {"type": "Feature", "properties": {"name": "Shahrisabz", "kind": "city", "rank": 2}, "geometry": {"type": "Point", "coordinates": [66.834, 39.058]}}, {"type": "Feature", "properties": {"name": "Denov", "kind": "city", "rank": 2}, "geometry": {"type": "Point", "coordinates": [67.899, 38.267]}}, {"type": "Feature", "properties": {"name": "Zarafshon", "kind": "city", "rank": 2}, "geometry": {"type": "Point", "coordinates": [64.201, 41.574]}}, {"type": "Feature", "properties": {"name": "Uchquduq", "kind": "city", "rank": 2}, "geometry": {"type": "Point", "coordinates": [63.556, 42.157]}}, {"type": "Feature", "properties": {"name": "Mo'ynoq", "kind": "city", "rank": 2}, "geometry": {"type": "Point", "coordinates": [59.022, 43.768]}}, {"type": "Feature", "properties": {"name": "Xiva", "kind": "city", "rank": 2}, "geometry": {"type": "Point", "coordinates": [60.364, 41.378]}}, {"type": "Feature", "properties": {"name": "Kattaqo'rg'on", "kind": "city", "rank": 2}, "geometry": {"type": "Point", "coordinates": [66.257, 39.899]}}, {"type": "Feature", "properties": {"name": "Bekobod", "kind": "city", "rank": 2}, "geometry": {"type": "Point", "coordinates": [69.27, 40.221]}}, {"type": "Feature", "properties": {"name": "Kogon", "kind": "city", "rank": 2}, "geometry": {"type": "Point", "coordinates": [64.552, 39.722]}}, {"type": "Feature", "properties": {"name": "Ashxobod", "kind": "foreign", "rank": 3}, "geometry": {"type": "Point", "coordinates": [58.326, 37.96]}}, {"type": "Feature", "properties": {"name": "Dushanbe", "kind": "foreign", "rank": 3}, "geometry": {"type": "Point", "coordinates": [68.774, 38.56]}}, {"type": "Feature", "properties": {"name": "Bishkek", "kind": "foreign", "rank": 3}, "geometry": {"type": "Point", "coordinates": [74.604, 42.875]}}, {"type": "Feature", "properties": {"name": "Chimkent", "kind": "foreign", "rank": 3}, "geometry": {"type": "Point", "coordinates": [69.596, 42.317]}}, {"type": "Feature", "properties": {"name": "Turkiston", "kind": "foreign", "rank": 3}, "geometry": {"type": "Point", "coordinates": [68.251, 43.297]}}, {"type": "Feature", "properties": {"name": "Xo'jand", "kind": "foreign", "rank": 3}, "geometry": {"type": "Point", "coordinates": [69.622, 40.283]}}, {"type": "Feature", "properties": {"name": "Mari", "kind": "foreign", "rank": 3}, "geometry": {"type": "Point", "coordinates": [61.83, 37.593]}}, {"type": "Feature", "properties": {"name": "Turkmanobod", "kind": "foreign", "rank": 3}, "geometry": {"type": "Point", "coordinates": [63.578, 39.073]}}, {"type": "Feature", "properties": {"name": "Dashog'uz", "kind": "foreign", "rank": 3}, "geometry": {"type": "Point", "coordinates": [59.966, 41.836]}}, {"type": "Feature", "properties": {"name": "Qizilo'rda", "kind": "foreign", "rank": 3}, "geometry": {"type": "Point", "coordinates": [65.509, 44.852]}}, {"type": "Feature", "properties": {"name": "Taroz", "kind": "foreign", "rank": 3}, "geometry": {"type": "Point", "coordinates": [71.367, 42.9]}}, {"type": "Feature", "properties": {"name": "O'sh", "kind": "foreign", "rank": 3}, "geometry": {"type": "Point", "coordinates": [72.816, 40.513]}}, {"type": "Feature", "properties": {"name": "Mozori Sharif", "kind": "foreign", "rank": 3}, "geometry": {"type": "Point", "coordinates": [67.11, 36.709]}}, {"type": "Feature", "properties": {"name": "Qoraqalpog'iston\nRespublikasi", "kind": "region", "rank": 4}, "geometry": {"type": "Point", "coordinates": [58.9, 43.4]}}, {"type": "Feature", "properties": {"name": "Xorazm viloyati", "kind": "region", "rank": 4}, "geometry": {"type": "Point", "coordinates": [61.05, 41.25]}}, {"type": "Feature", "properties": {"name": "Buxoro viloyati", "kind": "region", "rank": 4}, "geometry": {"type": "Point", "coordinates": [63.3, 40.0]}}, {"type": "Feature", "properties": {"name": "Navoiy viloyati", "kind": "region", "rank": 4}, "geometry": {"type": "Point", "coordinates": [64.6, 41.6]}}, {"type": "Feature", "properties": {"name": "Samarqand viloyati", "kind": "region", "rank": 4}, "geometry": {"type": "Point", "coordinates": [66.45, 39.95]}}, {"type": "Feature", "properties": {"name": "Qashqadaryo viloyati", "kind": "region", "rank": 4}, "geometry": {"type": "Point", "coordinates": [66.25, 38.55]}}, {"type": "Feature", "properties": {"name": "Surxondaryo viloyati", "kind": "region", "rank": 4}, "geometry": {"type": "Point", "coordinates": [67.55, 38.0]}}, {"type": "Feature", "properties": {"name": "Jizzax viloyati", "kind": "region", "rank": 4}, "geometry": {"type": "Point", "coordinates": [67.3, 40.45]}}, {"type": "Feature", "properties": {"name": "Sirdaryo viloyati", "kind": "region", "rank": 4}, "geometry": {"type": "Point", "coordinates": [68.55, 40.6]}}, {"type": "Feature", "properties": {"name": "Toshkent viloyati", "kind": "region", "rank": 4}, "geometry": {"type": "Point", "coordinates": [70.15, 41.25]}}, {"type": "Feature", "properties": {"name": "Namangan viloyati", "kind": "region", "rank": 4}, "geometry": {"type": "Point", "coordinates": [71.1, 41.2]}}, {"type": "Feature", "properties": {"name": "Andijon viloyati", "kind": "region", "rank": 4}, "geometry": {"type": "Point", "coordinates": [72.55, 40.65]}}, {"type": "Feature", "properties": {"name": "Farg'ona viloyati", "kind": "region", "rank": 4}, "geometry": {"type": "Point", "coordinates": [71.25, 40.3]}}]}