{"type":"FeatureCollection","features":[{"type":"Feature","properties":{"name":"O'zbekiston"},"geometry":{"type":"MultiPolygon","coordinates":[[[[71.78651786517867,39.98944395834195],[71.79011790117903,39.97931249472266],[71.76851768517687,39.915146558467114],[71.75771757717578,39.90332651757794],[71.74331743317435,39.899949363038175],[71.71451714517147,39.9067036721177],[71.69651696516965,39.913457981197226],[71.6749167491675,39.92527802208642],[71.66411664116643,39.940475217515356],[71.68211682116822,39.955672412944296],[71.70731707317074,39.955672412944296],[71.72531725317253,39.962426722023835],[71.76131761317615,39.9843782265323],[71.78651786517867,39.98944395834195]]],[[[70.95850958509587,40.23766481701472],[70.93690936909371,40.23935339428459],[70.85050850508506,40.23428766247494],[70.70650706507067,40.200516117077285],[70.66330663306633,40.19713896253752],[70.62370623706238,40.19882753980741],[70.58050580505807,40.222467621585764],[70.56250562505625,40.264682053332834],[70.55170551705518,40.310273639619666],[70.5229052290523,40.34404518501732],[70.50130501305014,40.35079949409685],[70.48330483304835,40.34911091682697],[70.46530465304653,40.34404518501732],[70.44370443704437,40.34404518501732],[70.42210422104222,40.347422339557085],[70.37170371703718,40.36430811225591],[70.3861038610386,40.39976823492346],[70.38250382503827,40.40314538946322],[70.37530375303754,40.41158827581263],[70.37170371703718,40.41327685308251],[70.35730357303575,40.42847404851146],[70.35730357303575,40.430162625781335],[70.35370353703539,40.43522835759099],[70.35370353703539,40.45549128482958],[70.36810368103681,40.47575421206817],[70.40050400504006,40.49095140749712],[70.4689046890469,40.5027714483863],[70.47610476104762,40.50614860292606],[70.48690486904869,40.51628006654535],[70.5121051210512,40.54667445740324],[70.52650526505266,40.556805921022544],[70.54090540905409,40.561871652832195],[70.55530555305555,40.56524880737196],[70.56970569705697,40.57031453918161],[70.58050580505807,40.57875742553101],[70.61650616506165,40.612528970928665],[70.67770677706778,40.64967767086608],[70.69210692106921,40.659809134485386],[70.70650706507067,40.6682520208348],[70.71730717307173,40.67162917537456],[70.73170731707319,40.675006329914325],[70.73530735307355,40.6783834844541],[70.73890738907389,40.68344921626374],[70.73890738907389,40.68851494807339],[70.75690756907571,40.695269257152916],[70.75690756907571,40.70371214350233],[70.76770767707677,40.737483688899985],[70.72810728107282,40.75436946159881],[70.6381063810638,40.77125523429764],[70.62010620106201,40.786452429726594],[70.62010620106201,40.80333820242541],[70.62730627306274,40.8151582433146],[70.6489064890649,40.81684682058447],[70.68490684906851,40.794895316075994],[70.7029070290703,40.78814100699647],[70.70650706507067,40.806715356965185],[70.69570695706958,40.81684682058447],[70.51570515705157,40.97219592941369],[70.48330483304835,40.994147433922166],[70.47970479704799,40.99583601119204],[70.47610476104762,40.9992131657318],[70.45810458104583,41.01609893843063],[70.44730447304474,41.02623040204993],[70.40050400504006,41.039739020209],[70.36450364503645,41.03298471112946],[70.33570335703357,40.926604343126854],[70.28170281702819,40.87763560230026],[70.20970209702097,40.8438640569026],[70.10530105301055,40.81346966604471],[70.0081000810008,40.757746616138576],[69.82449824498246,40.71384360712163],[69.80289802898031,40.70540072077222],[69.78489784897849,40.69358067988304],[69.74169741697418,40.65305482540586],[69.71649716497166,40.63616905270703],[69.69129691296914,40.62941474362749],[69.65889658896589,40.639546207246795],[69.64809648096482,40.64798909359621],[69.63729637296373,40.6581205572155],[69.61929619296194,40.681760638993865],[69.60849608496085,40.69189210261315],[69.58329583295833,40.70371214350233],[69.57249572495726,40.71215502985174],[69.53289532895329,40.759435193408464],[69.50769507695077,40.774632388837404],[69.47889478894791,40.77632096610729],[69.46089460894609,40.784763852456706],[69.45009450094503,40.794895316075994],[69.43569435694357,40.80333820242541],[69.41769417694178,40.8050267796953],[69.38529385293853,40.79658389334588],[69.3708937089371,40.78982958426636],[69.35649356493565,40.779698120647055],[69.33129331293313,40.7560580388687],[69.31329313293134,40.72904080255057],[69.3060930609306,40.69864641169269],[69.3060930609306,40.66318628902515],[69.31329313293134,40.6091518163889],[69.30969309693097,40.59564319822984],[69.29529295292954,40.58888888915031],[69.23409234092341,40.58551173461055],[69.19809198091983,40.56693738464183],[69.19809198091983,40.54667445740324],[69.23769237692377,40.494328562036884],[69.25929259292593,40.436916934860875],[69.27009270092702,40.42003116216205],[69.29529295292954,40.3845710394945],[69.3060930609306,40.36430811225591],[69.31329313293134,40.34235660774743],[69.3060930609306,40.29338786692084],[69.27369273692739,40.290010712381076],[69.23409234092341,40.300142176000364],[69.20889208892089,40.29845359873049],[69.21249212492125,40.2680592078726],[69.28449284492845,40.219090467046],[69.28449284492845,40.19545038526765],[69.24849248492487,40.18194176710858],[69.19809198091983,40.18363034437846],[69.10809108091081,40.20389327161706],[69.07209072090723,40.21740188977611],[69.04329043290434,40.229221930665304],[69.01809018090182,40.23259908520507],[68.85608856088561,40.212336157966476],[68.83808838088382,40.207270426156825],[68.8020880208802,40.190384653458],[68.77688776887769,40.18869607618811],[68.71928719287195,40.19713896253752],[68.69768697686979,40.19545038526765],[68.64368643686439,40.18363034437846],[68.60048600486004,40.17518745802906],[68.58248582485825,40.165055994409755],[68.60768607686077,40.143104489901276],[68.65088650886509,40.12115298539281],[68.6868868688687,40.11102152177351],[68.69768697686979,40.11102152177351],[68.93168931689317,40.14648164444104],[68.97848978489785,40.12115298539281],[68.98208982089821,40.107644367233746],[68.98568985689857,40.09244717180479],[68.98568985689857,40.07724997637585],[68.97848978489785,40.06542993548668],[68.95328953289533,40.062052780946914],[68.88128881288813,40.07049566729633],[68.86328863288634,40.06542993548668],[68.82728827288273,40.04178985370832],[68.8128881288813,40.038412699168546],[68.79128791287914,40.07049566729633],[68.77328773287735,40.080627130915616],[68.76248762487626,40.062052780946914],[68.76248762487626,40.05192131732761],[68.78048780487805,40.04178985370832],[68.78408784087841,40.03334696735891],[68.78408784087841,40.01308404012032],[68.78408784087841,40.004641153770905],[68.78768787687878,39.9945096901516],[68.87768877688777,39.899949363038175],[68.88128881288813,39.877997858529696],[68.83808838088382,39.86448924037063],[68.81648816488166,39.89150647668876],[68.79848798487987,39.935409485705705],[68.78048780487805,39.96918103110336],[68.7588875888759,39.98100107199254],[68.75168751687517,39.97255818564312],[68.75528755287553,39.95398383567442],[68.76608766087662,39.93203233116594],[68.78768787687878,39.89657220849841],[68.78768787687878,39.88137501306946],[68.77688776887769,39.86280066310076],[68.76968769687699,39.86111208583087],[68.76248762487626,39.85942350856098],[68.7588875888759,39.857734931291105],[68.75168751687517,39.842537735862166],[68.75168751687517,39.84084915859228],[68.75168751687517,39.835783426782626],[68.74808748087483,39.82565196316334],[68.7408874088741,39.8188976540838],[68.72648726487265,39.82565196316334],[68.70128701287013,39.857734931291105],[68.6868868688687,39.86786639491039],[68.65088650886509,39.84422631313204],[68.63648636486366,39.84929204494169],[68.62568625686256,39.84929204494169],[68.6148861488615,39.82734054043321],[68.60408604086041,39.66692569979436],[68.60048600486004,39.643285618015994],[68.58608586085862,39.623022690777404],[68.56448564485646,39.60275976353881],[68.52128521285215,39.58249683630022],[68.50688506885069,39.56729964087128],[68.51048510485106,39.56223390906163],[68.51768517685178,39.54872529090257],[68.49608496084963,39.54197098182304],[68.4348843488435,39.52846236366398],[68.38808388083882,39.525085209124214],[68.33768337683378,39.52846236366398],[68.25488254882549,39.550413868172456],[68.10728107281074,39.55379102271222],[67.76527765277655,39.623022690777404],[67.71847718477187,39.623022690777404],[67.6788767887679,39.61457980442799],[67.5888758887589,39.56223390906163],[67.50607506075062,39.55210244544233],[67.48807488074883,39.53859382728328],[67.49527495274953,39.49300224099645],[67.49167491674919,39.48962508645667],[67.48807488074883,39.487936509186795],[67.4808748087481,39.48455935464703],[67.47727477274773,39.48455935464703],[67.45207452074521,39.487936509186795],[67.43767437674379,39.48624793191691],[67.4268742687427,39.47611646829762],[67.41607416074163,39.43727919109031],[67.4088740887409,39.398441913883005],[67.4088740887409,39.361293213945586],[67.39447394473945,39.32752166854793],[67.38727387273875,39.29375012315029],[67.38007380073802,39.2920615458804],[67.37287372873729,39.29375012315029],[67.36207362073623,39.2920615458804],[67.35127351273513,39.285307236800875],[67.34767347673477,39.280241504991224],[67.3440734407344,39.273487195911684],[67.3440734407344,39.259978577752634],[67.35127351273513,39.21945272327544],[67.37647376473765,39.19918979603685],[67.49887498874989,39.16541825063919],[67.58167581675818,39.16372967336932],[67.62127621276213,39.15190963248014],[67.62487624876249,39.14684390067049],[67.63207632076322,39.13671243705119],[67.63927639276395,39.131646705241536],[67.64287642876431,39.12995812797166],[67.6608766087661,39.133335282511425],[67.66807668076683,39.131646705241536],[67.67527675276753,39.11982666435236],[67.6788767887679,39.10631804619331],[67.66807668076683,39.028643491778695],[67.67167671676717,39.00331483273045],[67.68967689676899,38.9898062145714],[67.81927819278192,38.972920441872574],[67.84447844478444,38.97460901914245],[67.920079200792,38.993183369111165],[67.93447934479346,38.998249100920816],[67.94887948879489,39.00162625546058],[67.96327963279634,39.00162625546058],[67.98127981279814,38.99656052365093],[67.98847988479886,38.993183369111165],[68.00288002880029,38.98136332822199],[68.02088020880208,38.9796747509521],[68.03528035280354,38.98474048276175],[68.05328053280533,38.993183369111165],[68.06048060480606,38.99487194638104],[68.06768067680679,38.99656052365093],[68.07848078480785,38.99487194638104],[68.08568085680858,38.993183369111165],[68.10008100081001,38.9796747509521],[68.13608136081362,38.9205745465062],[68.15408154081541,38.89862304199774],[68.1648816488165,38.88680300110855],[68.1720817208172,38.866540073869956],[68.1720817208172,38.84458856936149],[68.1648816488165,38.82939137393254],[68.15048150481505,38.81588275577347],[68.13608136081362,38.804062714884296],[68.11808118081183,38.79730840580477],[68.09648096480964,38.79224267399512],[68.07848078480785,38.79393125126501],[68.06768067680679,38.78717694218547],[68.06408064080642,38.76691401494688],[68.06768067680679,38.75678255132759],[68.07128071280712,38.74665108770829],[68.07488074880749,38.73820820135887],[68.07488074880749,38.726388160469696],[68.07128071280712,38.721322428660045],[68.0460804608046,38.706125233231106],[68.0388803888039,38.69092803780215],[68.0388803888039,38.67404226510334],[68.05328053280533,38.63520498789603],[68.0568805688057,38.61494206065744],[68.05328053280533,38.55753043348143],[68.0568805688057,38.53557892897295],[68.06408064080642,38.523758888083776],[68.08568085680858,38.49336449722588],[68.09288092880931,38.478167301796944],[68.09288092880931,38.44777291093905],[68.09648096480964,38.43257571551011],[68.10728107281074,38.419067097351046],[68.14688146881468,38.38867270649315],[68.1828818288183,38.336326811126796],[68.20088200882009,38.32112961569784],[68.25128251282513,38.29917811118938],[68.33048330483305,38.24345506128324],[68.35568355683557,38.21306067042535],[68.35928359283594,38.17422339321806],[68.34488344883451,38.11512318877216],[68.31968319683199,38.059400138866025],[68.28008280082801,38.01380855257919],[68.26928269282695,37.9935456253406],[68.26208262082622,37.976659852641774],[68.25488254882549,37.961462657212834],[68.24768247682476,37.94964261632366],[68.2368823688237,37.94288830724412],[68.23328233282334,37.939511152704355],[68.21888218882191,37.93613399816459],[68.1720817208172,37.93106826635494],[68.13968139681398,37.92262538000553],[68.12168121681216,37.90911676184646],[68.07848078480785,37.80611354838362],[68.04968049680497,37.76052196209679],[67.97767977679777,37.679470253142426],[67.92367923679237,37.63894439866523],[67.87327873278733,37.58659850329887],[67.83007830078301,37.527498298852976],[67.80127801278013,37.466709517137204],[67.79767797677977,37.424495085390134],[67.81567815678159,37.345131953705646],[67.81927819278192,37.30291752195858],[67.81567815678159,37.26745739929105],[67.8048780487805,37.23368585389339],[67.7868778687787,37.2032914630355],[67.77967779677797,37.18809426760656],[67.77607776077761,37.20835719484515],[67.76527765277655,37.220177235734326],[67.74727747277473,37.22862012208374],[67.72567725677257,37.23368585389339],[67.68967689676899,37.2319972766235],[67.6788767887679,37.23368585389339],[67.66807668076683,37.23875158570304],[67.64287642876431,37.25057162659222],[67.63207632076322,37.25394878113198],[67.62127621276213,37.25226020386209],[67.60327603276033,37.24888304932233],[67.59247592475927,37.247194472052456],[67.58527585275854,37.242128740242805],[67.58167581675818,37.2319972766235],[67.57087570875709,37.22355439027409],[67.56007560075602,37.220177235734326],[67.54567545675457,37.2319972766235],[67.52767527675277,37.2725231311007],[67.50247502475025,37.282654594719986],[67.4808748087481,37.277588862910335],[67.4628746287463,37.26576882202116],[67.43047430474306,37.24044016297292],[67.41247412474127,37.22862012208374],[67.39087390873911,37.220177235734326],[67.36927369273693,37.215111503924675],[67.3440734407344,37.2134229266548],[67.31887318873189,37.20835719484515],[67.2828728287283,37.18809426760656],[67.25767257672578,37.184717113066796],[67.23607236072363,37.19315999941621],[67.22527225272253,37.20835719484515],[67.2180721807218,37.226931544813866],[67.20727207272074,37.24381731751268],[67.18927189271895,37.25901451294163],[67.14247142471424,37.2725231311007],[67.12447124471245,37.282654594719986],[67.11367113671139,37.297851790148925],[67.09567095670957,37.340066221895995],[67.0848708487085,37.3501976855153],[67.06327063270635,37.35526341732495],[67.02367023670237,37.37721492183341],[67.00567005670058,37.38396923091295],[66.9588695886959,37.38565780818283],[66.86526865268652,37.367083458214125],[66.73566735667359,37.36370630367436],[66.7248672486725,37.360329149134586],[66.70326703267034,37.346820530975535],[66.69246692466925,37.34344337643577],[66.66726667266673,37.345131953705646],[66.65646656466566,37.346820530975535],[66.5880658806588,37.368772035484],[66.56286562865628,37.37046061275389],[66.53766537665376,37.368772035484],[66.51966519665197,37.36370630367436],[66.49446494464945,37.3789034991033],[66.49806498064981,37.39747784907202],[66.51246512465124,37.41436362177083],[66.53046530465306,37.429560817199786],[66.54486544865449,37.451512321708265],[66.54126541265413,37.466709517137204],[66.5268652686527,37.48021813529627],[66.50886508865091,37.49372675345532],[66.49446494464945,37.522432567043325],[66.49806498064981,37.55789268971087],[66.51966519665197,37.62543578050618],[66.52326523265234,37.66427305771347],[66.5160651606516,37.74363618939796],[66.51966519665197,37.78247346660527],[66.55206552065522,37.83144220743186],[66.60966609666099,37.88885383460787],[66.64566645666457,37.946265461783895],[66.63486634866351,37.966528389022486],[66.62406624066242,37.9935456253406],[66.59166591665917,38.01380855257919],[66.55566555665558,38.02731717073826],[66.5160651606516,38.03576005708767],[66.44046440464405,38.03576005708767],[66.40806408064083,38.0425143661672],[66.30726307263075,38.079663066104615],[66.26046260462604,38.126943229661336],[66.23166231662319,38.148894734169815],[66.19926199261994,38.16071477505899],[66.13446134461344,38.17591197048793],[66.07326073260734,38.21474924769524],[66.04446044460445,38.226569288584415],[65.97605976059762,38.23501217493383],[65.87525875258754,38.27216087487125],[65.8428584285843,38.27553802941101],[65.81405814058141,38.26540656579172],[65.76725767257673,38.23501217493383],[65.73845738457385,38.22488071131454],[65.67005670056702,38.21981497950489],[65.60525605256052,38.23670075220372],[65.43965439654397,38.32450677023762],[65.33885338853389,38.378541242873865],[65.20565205652056,38.44946148820894],[65.11205112051121,38.51700457900424],[64.97884978849788,38.61156490611768],[64.91044910449105,38.64533645151532],[64.7628476284763,38.685862305992515],[64.63324633246333,38.7449625104384],[64.42444424444244,38.883425846568784],[64.3668436684367,38.94083747374479],[64.33804338043382,38.971231864602686],[64.3128431284313,38.98305190549186],[64.28404284042841,38.9796747509521],[64.20484204842049,38.94928036009421],[64.17964179641797,38.945903205554444],[64.15084150841508,38.94928036009421],[64.1220412204122,38.9611004009834],[63.960039600396016,39.050594996287174],[63.81963819638196,39.12995812797166],[63.708037080370815,39.190746909687434],[63.64683646836468,39.23971565051403],[63.54243542435424,39.356227482135935],[63.47763477634777,39.403507645692656],[63.33723337233374,39.47949362283738],[63.00963009630098,39.66185996798471],[62.84762847628477,39.75135456328849],[62.710827108271104,39.82565196316334],[62.5920259202592,39.88981789941887],[62.534425344253464,39.935409485705705],[62.52362523625237,39.940475217515356],[62.451624516245175,40.00970688558054],[62.44082440824408,40.03672412189867],[62.42282422824229,40.09244717180479],[62.42282422824229,40.11439867631327],[62.426424264242655,40.13635018082175],[62.43362433624338,40.15492453079045],[62.44082440824408,40.17349888075917],[62.43722437224372,40.19376180799776],[62.4048240482405,40.24441912609424],[62.401224012240135,40.26637063060272],[62.401224012240135,40.291699289650964],[62.39762397623977,40.311962216889555],[62.38682386823868,40.33053656685826],[62.36162361623616,40.369373844065564],[62.35802358023582,40.387948194034266],[62.35442354423546,40.430162625781335],[62.34362343623437,40.43860551213075],[62.26082260822608,40.47575421206817],[62.2140221402214,40.48588567568747],[62.192421924219246,40.499394293846535],[62.18882188821888,40.50614860292606],[62.18522185221852,40.50783718019595],[62.17802178021782,40.5314772619743],[62.17082170821709,40.539920148323716],[62.13482134821348,40.577068848261135],[62.12042120421205,40.599020352769614],[62.098820988209894,40.659809134485386],[62.0880208802088,40.675006329914325],[62.05562055620558,40.702023566232455],[62.04482044820449,40.71553218439152],[62.03762037620376,40.73579511163011],[62.0268202682027,40.78138669791694],[61.99441994419945,40.86581556141107],[61.98361983619836,40.88607848864967],[61.990819908199086,40.8928327977292],[61.98361983619836,40.90802999315814],[61.98361983619836,40.97895023849321],[61.98001980019802,40.9992131657318],[61.96921969219693,41.01609893843063],[61.897218972189734,41.108970688274184],[61.87921879218794,41.12416788370312],[61.6560165601656,41.24912260167444],[61.56601566015661,41.27782841526245],[61.46881468814689,41.296402765231164],[61.43281432814328,41.29977991977093],[61.411214112141124,41.29133703342151],[61.396813968139696,41.27107410618292],[61.386013860138604,41.23561398351539],[61.36441364413645,41.22548251989609],[61.34281342813429,41.19339955176832],[61.31761317613177,41.169759469989955],[61.28161281612816,41.15793942910078],[61.24201242012421,41.156250851830904],[61.202412024120264,41.16807089272008],[61.09801098010982,41.2237939426262],[61.08361083610836,41.2237939426262],[61.02241022410226,41.217039633546676],[61.018810188101895,41.22548251989609],[61.01521015210153,41.23561398351539],[61.01161011610117,41.23730256078527],[61.00441004410044,41.22885967443585],[60.99000990009901,41.211973901737025],[60.98640986409865,41.206908169927374],[60.97920979209792,41.20353101538761],[60.92880928809288,41.24067971532503],[60.86040860408605,41.252499756214206],[60.658806588065886,41.24405686986479],[60.53640536405365,41.21366247900691],[60.47880478804788,41.211973901737025],[60.4428044280443,41.22041678808644],[60.41400414004141,41.23561398351539],[60.36000360003601,41.276139837992574],[60.29880298802988,41.30991138339023],[60.205202052020525,41.34706008332765],[60.09360093600938,41.38927451507472],[60.064800648006496,41.41122601958318],[60.05760057600577,41.43486610136155],[60.072000720007196,41.51422923304604],[60.079200792007924,41.53111500574485],[60.09360093600938,41.546312201173805],[60.10800108001081,41.55644366479309],[60.15120151201512,41.57164086022205],[60.16560165601658,41.5851494783811],[60.154801548015485,41.603723828349814],[60.09000090000902,41.67464407368489],[60.05760057600577,41.71854708270183],[60.05040050400504,41.754007205369376],[60.07560075600756,41.78102444168749],[60.10080100801008,41.79453305984656],[60.13320133201333,41.79791021438632],[60.172801728017276,41.78777875076703],[60.205202052020525,41.77258155533808],[60.22680226802268,41.76582724625855],[60.24120241202414,41.76751582352844],[60.2520025200252,41.77933586441762],[60.2520025200252,41.79453305984656],[60.24120241202414,41.80804167800562],[60.230402304023045,41.8198617188948],[60.21600216002162,41.82830460524421],[60.16920169201694,41.85025610975269],[60.15120151201512,41.86038757337198],[60.14040140401406,41.873896191531045],[60.1188011880119,41.900913427849176],[60.09000090000902,41.91948777781788],[59.98199981999821,41.94988216867577],[59.93159931599317,41.94819359140588],[59.91719917199174,41.95325932321553],[59.90639906399065,41.9667679413746],[59.90639906399065,41.98027655953365],[59.920799207992076,41.99040802315295],[59.93519935199353,41.993785177692715],[59.938799387993896,41.993785177692715],[59.996399963999636,42.01067095039154],[59.9927999279993,42.04950822759885],[59.97479974799748,42.098476968425445],[59.98199981999821,42.145757131982165],[60,42.15420001833158],[60.021600216002156,42.160954327411105],[60.03600036000361,42.16939721376052],[60.039600396003976,42.18628298645935],[60.028800288002884,42.19979160461841],[60.003600036000364,42.2099230682377],[59.96039960399605,42.223431686396765],[59.92439924399244,42.24707176817512],[59.89919899198992,42.2791547363029],[59.8667986679867,42.30448339535113],[59.819998199981995,42.307860549890904],[59.77679776797768,42.30448339535113],[59.69039690396906,42.30954912716078],[59.47799477994781,42.285909045382425],[59.427594275942766,42.287597622652314],[59.402394023940246,42.29435193173184],[59.3627936279363,42.326434899859606],[59.33759337593378,42.33150063166926],[59.28719287192874,42.33656636347891],[59.258392583925854,42.348386404368085],[59.2439924399244,42.36527217706691],[59.233192331923334,42.44125815421164],[59.22239222392224,42.46152108145023],[59.207992079920814,42.47840685414906],[59.14679146791468,42.52737559497565],[59.12159121591216,42.53750705859494],[59.09639096390964,42.535818481325066],[59.06759067590676,42.52568701770576],[59.0387903879039,42.51893270862624],[59.00999009990102,42.51893270862624],[58.96318963189634,42.52399844043589],[58.89478894788948,42.54763852221424],[58.82638826388265,42.593230108501075],[58.613986139861396,42.780662185458056],[58.588785887858876,42.79079364907736],[58.570785707857084,42.76884214456888],[58.556385563855656,42.68441328107474],[58.5347853478535,42.65401889021685],[58.49158491584916,42.64557600386743],[58.44118441184412,42.64726458113732],[58.39078390783908,42.657396044756624],[58.2827828278283,42.68947901288439],[58.25758257582578,42.68947901288439],[58.23958239582396,42.68441328107474],[58.185581855818555,42.660773199296386],[58.14958149581497,42.64895315840721],[58.13158131581318,42.63882169478791],[58.12078120781209,42.62362449935897],[58.127981279812815,42.60505014939025],[58.14598145981461,42.593230108501075],[58.27198271982721,42.54932709948413],[58.30798307983082,42.529064172245526],[58.336783367833675,42.493604049577996],[58.361983619836195,42.446323886021275],[58.437584375843755,42.35851786798737],[58.47718477184773,42.32305774531984],[58.487984879848796,42.31461485897043],[58.495184951849524,42.306171972621016],[58.49158491584916,42.2977290862716],[58.47718477184773,42.29266335446195],[58.412384123841235,42.28422046811254],[58.39798397983981,42.287597622652314],[58.387183871838715,42.301106240811365],[58.387183871838715,42.31630343624032],[58.39078390783908,42.333189208939146],[58.39438394383944,42.35176355890785],[58.38358383583838,42.38722368157539],[58.35838358383586,42.41424091789351],[58.32598325983261,42.431126690592336],[58.22518225182253,42.466586813259866],[58.203582035820375,42.46996396779964],[58.185581855818555,42.466586813259866],[58.14958149581497,42.45645534964058],[58.13158131581318,42.45476677237069],[58.11718117181172,42.46152108145023],[58.09558095580957,42.48684974049847],[58.08118081180814,42.49698120411776],[58.059580595805954,42.50204693592741],[58.0379803798038,42.50204693592741],[58.01638016380164,42.50035835865752],[57.99837998379985,42.493604049577996],[57.98757987579876,42.483472585958694],[57.976779767797694,42.47165254506952],[57.951579515795174,42.44970104056105],[57.926379263792654,42.44125815421164],[57.908379083790834,42.431126690592336],[57.91557915579156,42.404109454274206],[57.93717937179372,42.370337908876564],[57.93717937179372,42.35345213617774],[57.92997929979302,42.33150063166926],[57.88677886778868,42.26226896360407],[57.87237872378725,42.25044892271488],[57.83637836378364,42.24031745909559],[57.825578255782574,42.22680884093653],[57.832778327783274,42.21161164550759],[57.84717847178473,42.201480181888286],[57.850778507785094,42.191348718269],[57.82917829178294,42.17952867737982],[57.807578075780754,42.176151522840044],[57.73917739177392,42.17952867737982],[57.72117721177213,42.176151522840044],[57.667176671766725,42.15588859560145],[57.62037620376205,42.14744570925204],[57.47997479974799,42.166020059220756],[57.382773827738276,42.16433148195087],[57.289172891728924,42.12887135928334],[57.206372063720636,42.06977115483744],[57.15237152371523,41.993785177692715],[57.11637116371165,41.951570745945645],[57.073170731707336,41.92961924143718],[56.979569795697955,41.895847696039525],[56.9507695076951,41.86545330518163],[56.9507695076951,41.82830460524421],[56.972369723697255,41.748941473559725],[56.96876968769689,41.71010419635242],[56.96156961569616,41.67802122822465],[56.96156961569616,41.64762683736676],[56.979569795697955,41.61216671469923],[57.00117001170014,41.58346090111122],[57.0119701197012,41.55813224206298],[57.01557015570157,41.52942642847498],[57.01557015570157,41.49396630580743],[57.01917019170193,41.46526049221943],[57.03357033570336,41.43824325590131],[57.05157051570515,41.41291459685307],[57.073170731707336,41.394340246884354],[57.087570875708764,41.38758593780483],[57.10197101971019,41.3808316287253],[57.15237152371523,41.37238874237589],[57.163171631716324,41.36732301056624],[57.15957159571596,41.3605687014867],[57.148771487714896,41.35043723786741],[57.12717127171271,41.34030577424811],[57.080370803708036,41.321731424279406],[57.05877058770588,41.30484565158058],[57.029970299702995,41.26263121983351],[57.0119701197012,41.254188333484095],[56.88956889568897,41.27276268345281],[56.79236792367925,41.28795987888175],[56.569165691656934,41.29809134250104],[56.53316533165332,41.29977991977093],[56.3279632796328,41.30822280612034],[56.14076140761409,41.314977115199866],[55.97875978759788,41.321731424279406],[55.97875978759788,41.551377932983456],[55.97875978759788,41.78102444168749],[55.97875978759788,42.01067095039154],[55.97875978759788,42.24031745909559],[55.97875978759788,42.468275390529755],[55.97875978759788,42.697921899233805],[55.97875978759788,42.927568407937855],[55.97875978759788,43.15721491664189],[55.97875978759788,43.386861425345955],[55.975159751597516,43.61650793404999],[55.975159751597516,43.84615444275403],[55.975159751597516,44.07580095145809],[55.975159751597516,44.30544746016213],[55.975159751597516,44.53509396886619],[55.975159751597516,44.763051900300354],[55.975159751597516,44.99269840900439],[55.975159751597516,44.994386986274264],[55.975159751597516,44.99607556354417],[55.97875978759788,44.99607556354417],[56.07236072360723,45.01802706805262],[56.16596165961661,45.03828999529122],[56.259562595625965,45.0602414997997],[56.35316353163532,45.08219300430818],[56.4467644676447,45.10245593154676],[56.54036540365405,45.124407436055236],[56.6339663396634,45.14467036329384],[56.7059670596706,45.16155613599267],[56.727567275672754,45.16662186780232],[56.821168211682135,45.18857337231077],[56.91476914769149,45.208836299549375],[57.00837008370084,45.230787804057854],[57.10197101971019,45.25105073129643],[57.19557195571957,45.27300223580491],[57.289172891728924,45.29495374031339],[57.382773827738276,45.315216667551994],[57.47997479974799,45.33716817206047],[57.60237602376026,45.364185408378574],[57.72837728377286,45.391202644696705],[57.85437854378546,45.418219881014835],[57.976779767797694,45.445237117332965],[58.034380343803434,45.45705715822214],[58.09558095580957,45.46887719911132],[58.153181531815335,45.480697240000495],[58.210782107821075,45.49251728088967],[58.26838268382684,45.50602589904872],[58.329583295832975,45.5178459399379],[58.39078390783908,45.529665980827076],[58.45198451984521,45.543174598986155],[58.531185311853136,45.55837179441508],[58.556385563855656,45.556683217145206],[58.581585815858176,45.54824033079581],[58.657186571865736,45.51278020812825],[58.682386823868256,45.502648744508974],[58.74358743587436,45.47225435365107],[58.84078840788408,45.426662767364235],[58.96678966789668,45.36587398564848],[59.05679056790569,45.32365955390139],[59.12159121591216,45.293265163043515],[59.290792907929074,45.21052487681925],[59.47799477994781,45.12271885878536],[59.6759967599676,45.02984710894182],[59.877598775987764,44.93359820455851],[60.07560075600756,44.839037877445065],[60.27000270002702,44.746166127601526],[60.45360453604536,44.660048686837484],[60.6228062280623,44.580685555153025],[60.766807668076694,44.51145388708781],[60.88560885608857,44.4540422599118],[60.97560975609758,44.411827828164746],[61.03681036810369,44.38312201457674],[61.06201062010621,44.36117051006826],[61.080010800108,44.33584185102001],[61.08721087210873,44.31051319197178],[61.094410944109455,44.259855873875296],[61.10161101611018,44.23621579209694],[61.16281162811629,44.16867270130163],[61.278012780127824,44.07917810599784],[61.3320133201332,44.036963674250785],[61.386013860138604,43.99306066523383],[61.454414544145436,43.93564903805782],[61.512015120151204,43.88668029723121],[61.56961569615697,43.8394001336745],[61.62721627216274,43.792119970117795],[61.68481684816848,43.743151229291186],[61.74241742417425,43.69587106573448],[61.80001800018002,43.65027947944765],[61.85401854018542,43.60299931589094],[61.91161911619116,43.555719152334206],[61.98721987219872,43.493241793348545],[62.00522005220054,43.48648748426902],[62.0268202682027,43.48142175245937],[62.10962109621096,43.49155321607867],[62.14562145621457,43.49661894788832],[62.18162181621818,43.50168467969797],[62.21762217622177,43.506750411507625],[62.25362253622538,43.51012756604737],[62.30762307623078,43.5185704523968],[62.36522365223652,43.52532476147633],[62.42282422824229,43.53376764782573],[62.476824768247695,43.54052195690528],[62.57042570425705,43.55234199779446],[62.660426604266064,43.56247346141373],[62.75042750427505,43.574293502302936],[62.844028440284404,43.58442496592221],[62.93402934029342,43.59455642954151],[63.02403024030241,43.60637647043069],[63.11763117631176,43.61650793404999],[63.20763207632078,43.626639397669294],[63.3588335883359,43.618196511319866],[63.51363513635138,43.60806504770056],[63.6648366483665,43.59793358408129],[63.81603816038162,43.58780212046199],[63.95643956439565,43.577670656842685],[64.09324093240934,43.569227770493285],[64.23364233642337,43.55909630687398],[64.37044370443706,43.550653420524554],[64.4280442804428,43.547276265984806],[64.44244442444426,43.550653420524554],[64.46044460444605,43.55403057506433],[64.56124561245613,43.59455642954151],[64.65844658446585,43.63339370674882],[64.75924759247593,43.673919561226],[64.85644856448565,43.71275683843331],[64.87444874448747,43.71782257024296],[64.89244892448926,43.72288830205261],[64.90684906849069,43.72119972478271],[64.92124921249214,43.71951114751283],[64.93924939249393,43.707691106623656],[64.95724957249573,43.697559643004354],[65.06525065250653,43.59624500681139],[65.17325173251734,43.493241793348545],[65.22005220052202,43.45609309341114],[65.27045270452706,43.417255816203834],[65.3748537485375,43.36997565264713],[65.47565475654758,43.32269548909039],[65.49725497254974,43.30918687093134],[65.51525515255153,43.297366830042165],[65.60165601656018,43.16903495753107],[65.65565655656556,43.087983248576705],[65.73125731257312,42.97484857149456],[65.79605796057962,42.87691108984137],[65.80325803258035,42.87691108984137],[65.81405814058141,42.8752225125715],[65.9580595805958,42.932634139747506],[66.10206102061022,42.990045766923515],[66.08046080460807,42.74182490825075],[66.05886058860588,42.493604049577996],[66.05526055260555,42.466586813259866],[66.05166051660518,42.44125815421164],[66.04806048060482,42.432815267862225],[66.04446044460445,42.42437238151281],[66.03006030060303,42.420995226973034],[66.01926019260193,42.41761807243327],[66.01566015660157,42.40917518608386],[66.0120601206012,42.40242087700433],[66.0120601206012,42.37202648614644],[66.00846008460084,42.208234490967826],[66.0048600486005,42.014048104931305],[66.00846008460084,42.00729379585178],[66.00846008460084,42.00222806404213],[66.0120601206012,42.000539486772254],[66.01566015660157,41.99716233223248],[66.1380613806138,41.99716233223248],[66.24606246062461,41.99716233223248],[66.35766357663579,41.99716233223248],[66.47646476464766,41.9954737549626],[66.48006480064802,41.99716233223248],[66.48366483664839,41.99716233223248],[66.48726487264872,41.99716233223248],[66.49086490864909,41.99716233223248],[66.49446494464945,41.9954737549626],[66.49806498064981,41.9954737549626],[66.50166501665018,41.993785177692715],[66.50526505265054,41.993785177692715],[66.51966519665197,41.86714188245152],[66.53766537665376,41.74049858721031],[66.57006570065701,41.61723244650888],[66.60246602466026,41.49396630580743],[66.64566645666457,41.34706008332765],[66.68886688866888,41.19846528357796],[66.71046710467107,41.17820235633937],[66.73206732067322,41.15793942910078],[66.75726757267574,41.15287369729113],[66.77526775267754,41.149496542751365],[66.81486814868148,41.14105365640195],[66.93006930069302,41.14780796548149],[67.02727027270274,41.15118512002125],[67.17487174871749,41.15793942910078],[67.2828728287283,41.16300516091043],[67.4088740887409,41.16807089272008],[67.49167491674919,41.17313662452973],[67.62127621276213,41.17820235633937],[67.74727747277473,41.18326808814902],[67.75807758077582,41.181579510879146],[67.77247772477725,41.17989093360926],[67.79047790477907,41.171448047259844],[67.81207812078122,41.16300516091043],[67.82287822878229,41.15962800637067],[67.83367833678338,41.156250851830904],[67.84447844478444,41.15793942910078],[67.85527855278553,41.15962800637067],[67.88407884078842,41.17313662452973],[67.9128791287913,41.18833381995867],[67.92367923679237,41.19339955176832],[67.93807938079382,41.20015386084785],[67.94527945279452,41.18664524268878],[67.94887948879489,41.171448047259844],[67.95247952479525,41.171448047259844],[67.95247952479525,41.169759469989955],[67.95607956079562,41.16469373818032],[67.95967959679598,41.15962800637067],[67.98127981279814,41.13767650186219],[68.00288002880029,41.11572499735371],[68.00648006480066,41.107282111004295],[68.01368013680138,41.09715064738501],[68.01728017280175,41.07857629741629],[68.02088020880208,41.0583133701777],[68.02808028080281,41.051559061098175],[68.03528035280354,41.04311617474876],[68.0388803888039,41.04649332928852],[68.0460804608046,41.049870483828286],[68.05328053280533,41.05324763836805],[68.06048060480606,41.05493621563794],[68.06408064080642,41.05324763836805],[68.07128071280712,41.05324763836805],[68.07848078480785,41.04818190655841],[68.08208082080822,41.04311617474876],[68.08928089280894,41.05324763836805],[68.09648096480964,41.06506767925724],[68.10728107281074,41.066756256527114],[68.11808118081183,41.066756256527114],[68.11808118081183,41.056624792907826],[68.12168121681216,41.044804752018635],[68.12168121681216,41.04311617474876],[68.12168121681216,41.03805044293911],[68.11808118081183,41.03467328839935],[68.12528125281253,41.03298471112946],[68.12888128881289,41.031296133859584],[68.13248132481326,41.029607556589696],[68.11808118081183,41.02285324751017],[68.10728107281074,41.01609893843063],[68.10368103681037,41.014410361160756],[68.10008100081001,41.014410361160756],[68.10368103681037,41.01272178389087],[68.10728107281074,41.01103320662099],[68.1108811088111,41.00765605208122],[68.1108811088111,41.00596747481134],[68.11808118081183,40.9992131657318],[68.12168121681216,40.994147433922166],[68.12168121681216,40.97895023849321],[68.12168121681216,40.96544162033415],[68.11448114481146,40.94855584763533],[68.1108811088111,40.931670074936505],[68.10368103681037,40.91478430223768],[68.09648096480964,40.899587106808724],[68.08928089280894,40.88607848864967],[68.08208082080822,40.87256987049061],[68.07488074880749,40.86581556141107],[68.07128071280712,40.85906125233154],[68.06048060480606,40.85399552052189],[68.05328053280533,40.847241211442366],[68.0460804608046,40.842175479632715],[68.0388803888039,40.837109747823064],[68.02088020880208,40.83035543874354],[68.00288002880029,40.82528970693389],[67.99927999279993,40.821912552394124],[67.99567995679956,40.81853539785436],[67.99207992079923,40.8151582433146],[67.99207992079923,40.81178108877482],[67.99567995679956,40.81009251150495],[67.99927999279993,40.806715356965185],[68.01728017280175,40.8050267796953],[68.03528035280354,40.801649625155534],[68.05328053280533,40.794895316075994],[68.06768067680679,40.78814100699647],[68.11448114481146,40.75436946159881],[68.15768157681578,40.71890933893128],[68.19368193681939,40.69864641169269],[68.22608226082261,40.6783834844541],[68.26568265682658,40.66318628902515],[68.34488344883451,40.63110332089738],[68.46008460084602,40.58382315734066],[68.46368463684638,40.58720031188042],[68.46368463684638,40.58888888915031],[68.47088470884711,40.59395462095996],[68.47808478084781,40.599020352769614],[68.48528485284854,40.599020352769614],[68.49248492484926,40.599020352769614],[68.49608496084963,40.60239750730938],[68.49968499684996,40.60577466184914],[68.50328503285033,40.6091518163889],[68.50688506885069,40.61421754819855],[68.51048510485106,40.61590612546844],[68.51408514085142,40.619283280008204],[68.52128521285215,40.617594702738316],[68.52488524885248,40.617594702738316],[68.54648546485467,40.61084039365879],[68.56448564485646,40.60239750730938],[68.57888578885789,40.60070893003949],[68.59328593285935,40.599020352769614],[68.60408604086041,40.60408608457925],[68.6148861488615,40.6091518163889],[68.61848618486187,40.61590612546844],[68.62208622086223,40.62266043454797],[68.61128611286114,40.62603758908773],[68.60048600486004,40.62941474362749],[68.6148861488615,40.644611939056446],[68.62568625686256,40.659809134485386],[68.62568625686256,40.66318628902515],[68.62568625686256,40.66656344356491],[68.62208622086223,40.67331775264445],[68.61848618486187,40.6783834844541],[68.6148861488615,40.68513779353363],[68.61128611286114,40.69020352534328],[68.61128611286114,40.696957834422804],[68.60768607686077,40.70371214350233],[68.60768607686077,40.70877787531198],[68.60768607686077,40.71553218439152],[68.59688596885971,40.71890933893128],[68.58248582485825,40.72059791620116],[68.57888578885789,40.722286493471046],[68.57528575285752,40.723975070740934],[68.57168571685719,40.72904080255057],[68.56808568085683,40.73241795709035],[68.56448564485646,40.742549420709636],[68.5608856088561,40.75099230705905],[68.55368553685537,40.79320673880612],[68.550085500855,40.83542117055319],[68.550085500855,40.842175479632715],[68.55368553685537,40.85061836598213],[68.55728557285573,40.85230694325202],[68.55728557285573,40.85568409779178],[68.5608856088561,40.857372675061654],[68.56448564485646,40.85906125233154],[68.56808568085683,40.864126984141194],[68.57168571685719,40.87088129322072],[68.57168571685719,40.87594702503037],[68.57168571685719,40.87932417957013],[68.57168571685719,40.89114422045931],[68.57168571685719,40.9029642613485],[68.57168571685719,40.90802999315814],[68.57168571685719,40.91309572496779],[68.57528575285752,40.9114071476979],[68.57888578885789,40.909718570428026],[68.58608586085862,40.90802999315814],[68.58968589685898,40.906341415888264],[68.59328593285935,40.91816145677744],[68.60048600486004,40.92998149766662],[68.6148861488615,40.93673580674614],[68.62928629286293,40.945178693095556],[68.65088650886509,40.951933002175096],[68.65808658086581,40.95531015671486],[68.69048690486906,40.96544162033415],[68.70128701287013,40.97388450668356],[68.70848708487085,40.98401597030286],[68.72648726487265,41.024541824780044],[68.74448744487447,41.06337910198735],[68.7588875888759,41.07519914287653],[68.77328773287735,41.087019183765705],[68.80928809288093,41.09883922465488],[68.84168841688418,41.11065926554407],[68.85608856088561,41.12585646097301],[68.8668886688867,41.14274223367184],[68.87408874088743,41.149496542751365],[68.88128881288813,41.156250851830904],[68.89208892088922,41.15793942910078],[68.89928899288995,41.16131658364054],[68.9208892088921,41.16300516091043],[68.94248942489426,41.16469373818032],[68.96048960489605,41.171448047259844],[68.97848978489785,41.17820235633937],[68.99648996489967,41.18664524268878],[69.01449014490146,41.196776706308086],[69.02169021690219,41.20184243811774],[69.03249032490325,41.20859674719726],[69.03609036090361,41.21366247900691],[69.03969039690398,41.22041678808644],[69.0468904689047,41.26769695164316],[69.0540905409054,41.314977115199866],[69.0540905409054,41.32342000154928],[69.0540905409054,41.331862887898694],[69.0540905409054,41.338617196978234],[69.05049050490507,41.343682928787885],[69.05049050490507,41.34537150605776],[69.0468904689047,41.34706008332765],[69.0468904689047,41.34874866059752],[69.04329043290434,41.35043723786741],[69.03969039690398,41.35381439240717],[69.03249032490325,41.358880124216824],[69.03249032490325,41.36225727875659],[69.03249032490325,41.36732301056624],[69.03249032490325,41.370700165106],[69.03609036090361,41.374077319645764],[69.03969039690398,41.37745447418553],[69.04329043290434,41.379143051455415],[69.06849068490686,41.38758593780483],[69.09009090090902,41.39602882415424],[69.10089100891011,41.39771740142413],[69.10809108091081,41.401094555963894],[69.1188911889119,41.39771740142413],[69.12969129691297,41.394340246884354],[69.13329133291333,41.40616028777353],[69.1368913689137,41.41629175139283],[69.15129151291515,41.42473463774225],[69.16209162091621,41.43486610136155],[69.1908919089191,41.44668614225073],[69.21609216092162,41.46019476040978],[69.22689226892271,41.461883337679666],[69.23409234092341,41.461883337679666],[69.24849248492487,41.4585061831399],[69.2628926289263,41.45512902860014],[69.27009270092702,41.45512902860014],[69.27729277292775,41.456817605870015],[69.29529295292954,41.46526049221943],[69.3168931689317,41.47539195583873],[69.32409324093243,41.477080533108605],[69.33129331293313,41.478769110378494],[69.36009360093601,41.47370337856884],[69.3888938889389,41.47032622402908],[69.39609396093962,41.47201480129897],[69.40329403294035,41.47539195583873],[69.40329403294035,41.48045768764838],[69.39969399693999,41.48552341945802],[69.39249392493926,41.49734346034721],[69.38529385293853,41.5074749239665],[69.38169381693817,41.51422923304604],[69.38169381693817,41.519294964855675],[69.3888938889389,41.53111500574485],[69.39249392493926,41.54462362390392],[69.40689406894069,41.55306651025333],[69.42129421294214,41.55982081933287],[69.45009450094503,41.566575128412396],[69.47889478894791,41.57332943749192],[69.52929529295295,41.603723828349814],[69.57969579695799,41.63411821920771],[69.59409594095942,41.645938260096884],[69.60849608496085,41.65775830098606],[69.61569615696158,41.66282403279571],[69.6228962289623,41.66788976460536],[69.69129691296914,41.6830869600343],[69.75969759697597,41.69659557819337],[69.81369813698137,41.69828415546324],[69.87129871298714,41.69997273273313],[69.8928989289893,41.706727041812655],[69.91089910899109,41.713481350892195],[69.92889928899291,41.726989969051246],[69.94329943299434,41.74049858721031],[69.95049950499507,41.74725289628984],[69.95769957699576,41.75569578263925],[69.9648996489965,41.75907293717903],[69.97209972099722,41.764138668988664],[70.0009000090001,41.77258155533808],[70.02970029700299,41.77933586441762],[70.06930069300694,41.80297594619597],[70.11250112501125,41.826616027974325],[70.12330123301234,41.83674749159363],[70.13770137701377,41.848567532482804],[70.17010170101702,41.89247054149976],[70.20250202502027,41.936373550516706],[70.20970209702097,41.94143928232636],[70.2169021690217,41.94650501413601],[70.22770227702279,41.94988216867577],[70.23490234902349,41.95494790048542],[70.24570245702458,41.956636477755296],[70.2529025290253,41.958325055025185],[70.26370263702637,41.96170220956495],[70.2709027090271,41.96507936410471],[70.27810278102783,41.97014509591436],[70.28170281702819,41.97689940499389],[70.28530285302853,41.9853422913433],[70.28890288902889,41.993785177692715],[70.30330303303035,42.014048104931305],[70.31410314103141,42.034311032169896],[70.33570335703357,42.04781965032896],[70.35730357303575,42.063016845757915],[70.40770407704079,42.078214041186854],[70.45450454504547,42.09341123661579],[70.46170461704617,42.09341123661579],[70.4689046890469,42.09172265934592],[70.47970479704799,42.08665692753627],[70.48690486904869,42.08159119572662],[70.49770497704978,42.07483688664709],[70.5049050490505,42.06808257756755],[70.50850508505087,42.061328268488026],[70.5121051210512,42.056262536678375],[70.51570515705157,42.04613107305909],[70.51930519305193,42.035999609439784],[70.52650526505266,42.03093387763013],[70.53370533705339,42.02417956855061],[70.54450544505445,42.02249099128072],[70.55530555305555,42.01911383674096],[70.56610566105661,42.01742525947107],[70.58050580505807,42.015736682201194],[70.5949059490595,42.02249099128072],[70.60930609306095,42.02755672309037],[70.62010620106201,42.04275391851931],[70.6309063090631,42.056262536678375],[70.64170641706417,42.07483688664709],[70.6489064890649,42.09341123661579],[70.65970659706599,42.11029700931462],[70.67410674106742,42.125494204743575],[70.68850688506885,42.139002822902626],[70.7029070290703,42.1508228637918],[70.70650706507067,42.15757717287134],[70.71010710107103,42.16433148195087],[70.71730717307173,42.17446294557017],[70.7209072090721,42.182905831919584],[70.72810728107282,42.18966014099911],[70.73530735307355,42.19810302734852],[70.74610746107462,42.19810302734852],[70.75690756907571,42.19810302734852],[70.78210782107823,42.19303729553887],[70.80370803708038,42.18797156372922],[70.82170821708218,42.18966014099911],[70.84330843308433,42.19303729553887],[70.86130861308615,42.19979160461841],[70.87930879308794,42.20654591369794],[70.91530915309153,42.22680884093653],[70.94770947709478,42.24876034544501],[70.96930969309693,42.263957540873946],[71.01251012510127,42.287597622652314],[71.04491044910449,42.290974777192076],[71.07731077310774,42.280843313572774],[71.21771217712177,42.20654591369794],[71.25011250112502,42.19810302734852],[71.25371253712538,42.19810302734852],[71.23931239312395,42.160954327411105],[71.19971199711998,42.140691400172514],[71.11691116911169,42.1221170502038],[70.97650976509766,42.0444424957892],[70.93690936909371,42.03768818670967],[70.88650886508867,42.03768818670967],[70.8469084690847,42.03093387763013],[70.8289082890829,41.993785177692715],[70.82530825308254,41.936373550516706],[70.81450814508145,41.91948777781788],[70.77850778507786,41.909356314198575],[70.68130681306815,41.900913427849176],[70.6489064890649,41.88740480969011],[70.55170551705518,41.82323887343456],[70.5049050490505,41.78609017349714],[70.47610476104762,41.73881000994042],[70.45450454504547,41.71179277362231],[70.42210422104222,41.69659557819337],[70.38970389703897,41.684775537304176],[70.33210332103323,41.649315414636646],[70.17010170101702,41.57839516930157],[70.14850148501486,41.55306651025333],[70.16650166501665,41.52098354212556],[70.20250202502027,41.505786346696624],[70.3429034290343,41.49396630580743],[70.34650346503466,41.49396630580743],[70.38250382503827,41.477080533108605],[70.40050400504006,41.46526049221943],[70.41490414904149,41.45006329679049],[70.43650436504365,41.41629175139283],[70.45450454504547,41.40616028777353],[70.47250472504726,41.40447171050366],[70.47610476104762,41.40447171050366],[70.5121051210512,41.414603174122945],[70.63450634506347,41.46694906948932],[70.66690666906669,41.47201480129897],[70.68850688506885,41.461883337679666],[70.7029070290703,41.44499756498084],[70.76050760507607,41.37238874237589],[70.76770767707677,41.352125815137285],[70.77130771307714,41.33017431062882],[70.75690756907571,41.269385528913034],[70.75690756907571,41.252499756214206],[70.77130771307714,41.238991138055155],[70.78570785707859,41.24067971532503],[70.80730807308075,41.24743402440457],[70.8289082890829,41.24912260167444],[70.8469084690847,41.24236829259492],[70.86490864908649,41.233925406245504],[70.88290882908831,41.22041678808644],[70.89730897308974,41.206908169927374],[70.91530915309153,41.19339955176832],[70.93330933309335,41.191710974498434],[70.97650976509766,41.196776706308086],[71.02331023310234,41.190022397228546],[71.04851048510486,41.181579510879146],[71.06651066510665,41.169759469989955],[71.08451084510847,41.16131658364054],[71.12411124111242,41.15793942910078],[71.13851138511387,41.14780796548149],[71.16371163711639,41.11572499735371],[71.18171181711818,41.108970688274184],[71.18891188911891,41.127545038242886],[71.18891188911891,41.14780796548149],[71.18171181711818,41.16638231545019],[71.18531185311855,41.17989093360926],[71.2069120691207,41.18833381995867],[71.22851228512286,41.18664524268878],[71.24291242912429,41.17482520179961],[71.25371253712538,41.13767650186219],[71.26451264512647,41.12416788370312],[71.27531275312754,41.112347842813946],[71.289712897129,41.114036420083835],[71.30051300513006,41.13261077005254],[71.32571325713258,41.15793942910078],[71.39411394113941,41.112347842813946],[71.4157141571416,41.127545038242886],[71.4229142291423,41.16131658364054],[71.41211412114123,41.33524004243847],[71.41931419314193,41.34706008332765],[71.43371433714339,41.34537150605776],[71.48051480514806,41.311599960660104],[71.52371523715237,41.296402765231164],[71.55971559715599,41.301468497040815],[71.5849158491585,41.32342000154928],[71.61731617316175,41.37745447418553],[71.63171631716318,41.41122601958318],[71.63891638916391,41.43148894682177],[71.63531635316355,41.45006329679049],[71.60651606516066,41.477080533108605],[71.59571595715957,41.49396630580743],[71.61371613716139,41.53280358301474],[71.62811628116282,41.54293504663404],[71.64971649716497,41.54968935571357],[71.67131671316713,41.54800077844368],[71.68571685716859,41.53449216028463],[71.68931689316895,41.51422923304604],[71.68931689316895,41.49396630580743],[71.67131671316713,41.43824325590131],[71.67131671316713,41.42473463774225],[71.68211682116822,41.42304606047236],[71.68571685716859,41.43148894682177],[71.69291692916931,41.441620410441075],[71.69651696516965,41.44668614225073],[71.70731707317074,41.443308987710964],[71.7109171091711,41.42811179228201],[71.72171721717217,41.42473463774225],[71.7289172891729,41.4298003695519],[71.7289172891729,41.45175187406038],[71.73611736117363,41.45512902860014],[71.74691746917469,41.45344045133025],[71.75411754117542,41.44668614225073],[71.84771847718477,41.341994351518],[71.86211862118623,41.311599960660104],[71.86931869318695,41.279516992532336],[71.86571865718659,41.23730256078527],[71.87291872918729,41.1950881290382],[71.89811898118981,41.18495666541891],[71.97731977319773,41.1950881290382],[72.00252002520025,41.17989093360926],[72.01692016920171,41.16300516091043],[72.0349203492035,41.156250851830904],[72.06372063720639,41.169759469989955],[72.08532085320854,41.18495666541891],[72.1069210692107,41.196776706308086],[72.13212132121322,41.19846528357796],[72.15732157321574,41.18833381995867],[72.16812168121683,41.16807089272008],[72.17532175321753,41.14105365640195],[72.17532175321753,41.112347842813946],[72.18612186121862,41.06000194744759],[72.18612186121862,41.04142759747887],[72.1789217892179,41.02285324751017],[72.16452164521647,40.9992131657318],[72.19692196921969,41.00596747481134],[72.25452254522546,41.01947609297039],[72.29052290522907,41.02285324751017],[72.29772297722977,41.02791897931981],[72.30852308523086,41.05493621563794],[72.31572315723159,41.06169052471746],[72.33372333723338,41.07351056560664],[72.34452344523447,41.066756256527114],[72.37332373323733,41.031296133859584],[72.39492394923951,41.02285324751017],[72.42372423724237,41.01609893843063],[72.47772477724777,41.01103320662099],[72.48132481324814,41.009344629351105],[72.4849248492485,41.004278897541454],[72.4849248492485,40.9992131657318],[72.4849248492485,40.994147433922166],[72.4849248492485,40.9705073521438],[72.50292502925029,40.96375304306427],[72.52452524525245,40.962064465794384],[72.54612546125463,40.95699873398475],[72.58932589325894,40.906341415888264],[72.61812618126183,40.87932417957013],[72.65772657726578,40.86750413868096],[72.70092700927009,40.862438406871306],[72.83052830528305,40.87256987049061],[72.87012870128703,40.864126984141194],[72.8737287372874,40.83542117055319],[72.87012870128703,40.81853539785436],[72.88452884528846,40.820223975124236],[72.92772927729277,40.8438640569026],[73.00333003330033,40.87088129322072],[73.01773017730179,40.862438406871306],[73.03213032130321,40.847241211442366],[73.05373053730537,40.837109747823064],[73.11133111331114,40.83879832509295],[73.13653136531366,40.83542117055319],[73.14373143731439,40.8337325932833],[73.14733147331475,40.81346966604471],[73.11853118531187,40.78307527518682],[73.07173071730719,40.76281234794823],[72.97812978129781,40.73579511163011],[72.89172891728919,40.695269257152916],[72.81972819728199,40.681760638993865],[72.78372783727838,40.66994059810469],[72.75852758527586,40.64123478451667],[72.7477274772748,40.575380270991246],[72.71892718927191,40.56524880737196],[72.6829268292683,40.577068848261135],[72.6649266492665,40.577068848261135],[72.65772657726578,40.561871652832195],[72.65412654126541,40.54667445740324],[72.65052650526505,40.5314772619743],[72.63972639726398,40.519657221085126],[72.62532625326253,40.51121433473571],[72.58572585725858,40.50952575746582],[72.51372513725138,40.54498588013337],[72.47772477724777,40.550051611943005],[72.44892448924489,40.56018307556231],[72.41652416524167,40.5905774664202],[72.38052380523806,40.612528970928665],[72.35172351723517,40.60239750730938],[72.34812348123481,40.58551173461055],[72.36972369723699,40.55849449829242],[72.36972369723699,40.539920148323716],[72.36252362523626,40.52303437562489],[72.36252362523626,40.512902912005586],[72.37332373323733,40.5027714483863],[72.41652416524167,40.47913136660793],[72.42012420124203,40.47068848025852],[72.42732427324273,40.45886843936934],[72.42372423724237,40.43522835759099],[72.4129241292413,40.409899698542745],[72.39492394923951,40.389636771304154],[72.36972369723699,40.38625961676439],[72.34452344523447,40.39301392584392],[72.28332283322834,40.42003116216205],[72.26892268922691,40.42340831670181],[72.22572225722257,40.42171973943192],[72.21132211322114,40.425096893971684],[72.21492214922151,40.43522835759099],[72.22932229322294,40.436916934860875],[72.24372243722439,40.43860551213075],[72.25812258122582,40.44198266667051],[72.26532265322655,40.452114130289814],[72.26172261722618,40.452114130289814],[72.25452254522546,40.45886843936934],[72.23652236522366,40.46055701663923],[72.22932229322294,40.45886843936934],[72.18252182521826,40.457179862099466],[72.16452164521647,40.4538027075597],[72.09972099720997,40.42678547124157],[72.08892088920891,40.41665400762227],[72.08532085320854,40.39807965765357],[72.07092070920709,40.369373844065564],[72.04212042120423,40.34911091682697],[71.95571955719558,40.31533937142932],[71.95211952119521,40.30183075327025],[71.95931959319594,40.28663355784131],[71.97731977319773,40.27650209422201],[72.00612006120062,40.26637063060272],[72.01332013320135,40.26130489879307],[72.02052020520205,40.25792774425331],[72.02412024120241,40.25117343517377],[72.02052020520205,40.23935339428459],[72.00612006120062,40.23766481701472],[71.98811988119883,40.23935339428459],[71.97731977319773,40.242730548824355],[71.97011970119704,40.24441912609424],[71.9629196291963,40.24441912609424],[71.95211952119521,40.24104197155448],[71.91251912519127,40.242730548824355],[71.87291872918729,40.25117343517377],[71.8369183691837,40.249484857903894],[71.80451804518046,40.22584477612553],[71.78651786517867,40.19376180799776],[71.77571775717757,40.180253189838695],[71.76131761317615,40.16843314894952],[71.70731707317074,40.144793067171165],[71.69291692916931,40.1414159126314],[71.67131671316713,40.14817022171093],[71.6677166771668,40.16336741713987],[71.6677166771668,40.20389327161706],[71.66051660516607,40.22415619885565],[71.64611646116461,40.247796280634006],[71.62811628116282,40.25961632152318],[71.61011610116103,40.24610770336412],[71.6029160291603,40.227533353395415],[71.6029160291603,40.21064758069659],[71.59211592115923,40.19882753980741],[71.56691566915671,40.19713896253752],[71.52011520115201,40.20389327161706],[71.49851498514985,40.21064758069659],[71.4769147691477,40.22077904431589],[71.4589145891459,40.23428766247494],[71.45171451714518,40.249484857903894],[71.44091440914411,40.26130489879307],[71.39771397713977,40.27143636241236],[71.36531365313655,40.29338786692084],[71.34371343713437,40.29507644419073],[71.31491314913151,40.29338786692084],[71.29691296912969,40.29338786692084],[71.28251282512826,40.29845359873049],[71.27171271712717,40.3068964850799],[71.26451264512647,40.31871652596908],[71.25371253712538,40.32378225777873],[71.23931239312395,40.32040510323897],[71.2249122491225,40.30351933054014],[71.21411214112143,40.28156782603166],[71.19971199711998,40.264682053332834],[71.17091170911709,40.26130489879307],[71.05211052110522,40.274813516952136],[70.99450994509945,40.26637063060272],[70.95850958509587,40.23766481701472]],[[70.56610566105661,41.01778751570052],[70.54810548105482,41.014410361160756],[70.56250562505625,40.994147433922166],[70.58050580505807,40.9806388157631],[70.60930609306095,40.95024442490521],[70.62370623706238,40.93842438401603],[70.64530645306453,40.93504722947627],[70.64170641706417,40.951933002175096],[70.6309063090631,40.97557308395345],[70.61650616506165,40.994147433922166],[70.5949059490595,41.009344629351105],[70.56610566105661,41.01778751570052]]],[[[71.17811178111782,40.04178985370832],[71.18171181711818,40.0434784309782],[71.19251192511925,40.05023274005774],[71.19971199711998,40.05192131732761],[71.2249122491225,40.05867562640715],[71.23571235712359,40.055298471867374],[71.24291242912429,40.04685558551796],[71.23571235712359,40.03165839008902],[71.19251192511925,40.00632973104078],[71.17451174511746,39.9945096901516],[71.17811178111782,39.96749245383347],[71.22131221312213,39.93203233116594],[71.21771217712177,39.90163794030805],[71.2069120691207,39.888129322149],[71.19611196111961,39.88475216760922],[71.16011160111603,39.88475216760922],[71.11331113311135,39.87462070398993],[71.0989109891099,39.87630928125981],[71.08811088110883,39.88306359033935],[71.08451084510847,39.894883631228524],[71.0809108091081,39.90332651757794],[71.05931059310595,39.90332651757794],[71.04851048510486,39.89826078576829],[71.03771037710379,39.888129322149],[71.02331023310234,39.88137501306946],[71.00891008910091,39.88644074487911],[71.00891008910091,39.91176940392735],[71.05211052110522,39.962426722023835],[71.04491044910449,39.992821112881714],[71.03411034110343,39.999575421961254],[71.00891008910091,40.002952576501016],[70.99450994509945,40.00970688558054],[70.98370983709839,40.02152692646972],[70.95850958509587,40.06374135821679],[70.95130951309514,40.07893855364574],[70.9549095490955,40.09582432634457],[70.95850958509587,40.1127100990434],[70.97650976509766,40.144793067171165],[71.00891008910091,40.15830168533023],[71.03051030510306,40.14648164444104],[71.04851048510486,40.122841562662686],[71.06291062910631,40.09582432634457],[71.07731077310774,40.07893855364574],[71.10611106111062,40.06542993548668],[71.16371163711639,40.04685558551796],[71.16371163711639,40.045167008248086],[71.17091170911709,40.0434784309782],[71.17811178111782,40.04178985370832]]]]}}]}